*******************************************************************************
JPL/HORIZONS                  173 Ino (A877 PA)            2023-Sep-04 11:04:48
Rec #:     173 (+COV) Soln.date: 2023-Aug-22_09:45:00   # obs: 4329 (1879-2023)
 
IAU76/J2000 helio. ecliptic osc. elements (au, days, deg., period=Julian yrs):
 
  EPOCH=  2456968.5 ! 2014-Nov-07.00 (TDB)         Residual RMS= .24342
   EC= .2059984947357039   QR= 2.178563017043435   TP= 2456778.3913761736
   OM= 148.2723348356678   W=  228.0118065804952   IN= 14.21169425440945
   A= 2.74377693568511     MA= 41.22709085162383   ADIST= 3.308990854326785
   PER= 4.54497            N= .216860708           ANGMOM= .027883025
   DAN= 3.04729            DDN= 2.30913            L= 15.3972958
   B= -10.5142347          MOID= 1.20349002        TP= 2014-Apr-30.8913761736
 
Asteroid physical parameters (km, seconds, rotational period in hours):
   GM= n.a.                RAD= 62.9105            ROTPER= 6.15
   H= 8.                   G= .010                 B-V= .705
                           ALBEDO= .096            STYP= Xk

ASTEROID comments: 
1: soln ref.= JPL#119, OCC=0
2: source=ORB
*******************************************************************************


*******************************************************************************
Ephemeris / API_USER Mon Sep  4 11:04:48 2023 Pasadena, USA      / Horizons
*******************************************************************************
Target body name: 173 Ino (A877 PA)               {source: JPL#119}
Center body name: Solar System Barycenter (0)     {source: DE441}
Center-site name: BODY CENTER
*******************************************************************************
Start time      : A.D. 2023-Aug-12 00:00:00.0000 TDB
Stop  time      : A.D. 2023-Aug-13 00:00:00.0000 TDB
Step-size       : 2880 minutes
*******************************************************************************
Center geodetic : 0.0, 0.0, 0.0                   {E-lon(deg),Lat(deg),Alt(km)}
Center cylindric: 0.0, 0.0, 0.0                   {E-lon(deg),Dxy(km),Dz(km)}
Center radii    : (undefined)
Small perturbers: Yes                             {source: SB441-N16}
Output units    : KM-S
Calendar mode   : Mixed Julian/Gregorian
Output type     : GEOMETRIC cartesian states
Output format   : 2 (position and velocity)
Reference frame : Ecliptic of J2000.0
*******************************************************************************
Initial IAU76/J2000 heliocentric ecliptic osculating elements (au, days, deg.):
  EPOCH=  2456968.5 ! 2014-Nov-07.00 (TDB)         Residual RMS= .24342        
   EC= .2059984947357039   QR= 2.178563017043435   TP= 2456778.3913761736      
   OM= 148.2723348356678   W=  228.0118065804952   IN= 14.21169425440945       
  Equivalent ICRF heliocentric cartesian coordinates (au, au/d):
   X= 5.236801534270979E-01  Y= 2.291982088542114E+00  Z= 3.877520067370234E-01
  VX=-1.089863935038054E-02 VY= 4.078410683094591E-03 VZ= 2.260620873271887E-03
Asteroid physical parameters (km, seconds, rotational period in hours):        
   GM= n.a.                RAD= 62.9105            ROTPER= 6.15                
   H= 8.                   G= .010                 B-V= .705                   
                           ALBEDO= .096            STYP= Xk                    
*******************************************************************************
JDTDB
   X     Y     Z
   VX    VY    VZ
*******************************************************************************
$$SOE
2460168.500000000 = A.D. 2023-Aug-12 00:00:00.0000 TDB 
 X = 2.474109238330401E+08 Y = 2.003044358567244E+08 Z =-7.625458126725528E+07
 VX=-1.293658787688564E+01 VY= 1.767304576542492E+01 VZ=-2.073163747947715E+00
$$EOE
*******************************************************************************
 
TIME

  Barycentric Dynamical Time ("TDB" or T_eph) output was requested. This
continuous coordinate time is equivalent to the relativistic proper time
of a clock at rest in a reference frame co-moving with the solar system
barycenter but outside the system's gravity well. It is the independent
variable in the solar system relativistic equations of motion.

  TDB runs at a uniform rate of one SI second per second and is independent
of irregularities in Earth's rotation.
 
CALENDAR SYSTEM

  Mixed calendar mode was active such that calendar dates after AD 1582-Oct-15
(if any) are in the modern Gregorian system. Dates prior to 1582-Oct-5 (if any)
are in the Julian calendar system, which is automatically extended for dates
prior to its adoption on 45-Jan-1 BC.  The Julian calendar is useful for
matching historical dates. The Gregorian calendar more accurately corresponds
to the Earth's orbital motion and seasons. A "Gregorian-only" calendar mode is
available if such physical events are the primary interest.

REFERENCE FRAME AND COORDINATES

  Ecliptic at the standard reference epoch

    Reference epoch: J2000.0
    X-Y plane: adopted Earth orbital plane at the reference epoch
               Note: IAU76 obliquity of 84381.448 arcseconds wrt ICRF X-Y plane
    X-axis   : ICRF
    Z-axis   : perpendicular to the X-Y plane in the directional (+ or -) sense
               of Earth's north pole at the reference epoch.

  Symbol meaning:

    JDTDB    Julian Day Number, Barycentric Dynamical Time
      X      X-component of position vector (km)
      Y      Y-component of position vector (km)
      Z      Z-component of position vector (km)
      VX     X-component of velocity vector (km/sec)                           
      VY     Y-component of velocity vector (km/sec)                           
      VZ     Z-component of velocity vector (km/sec)                           

ABERRATIONS AND CORRECTIONS

 Geometric state vectors have NO corrections or aberrations applied.

Computations by ...

    Solar System Dynamics Group, Horizons On-Line Ephemeris System
    4800 Oak Grove Drive, Jet Propulsion Laboratory
    Pasadena, CA  91109   USA

    General site: https://ssd.jpl.nasa.gov/
    Mailing list: https://ssd.jpl.nasa.gov/email_list.html
    System news : https://ssd.jpl.nasa.gov/horizons/news.html
    User Guide  : https://ssd.jpl.nasa.gov/horizons/manual.html
    Connect     : browser        https://ssd.jpl.nasa.gov/horizons/app.html#/x
                  API            https://ssd-api.jpl.nasa.gov/doc/horizons.html
                  command-line   telnet ssd.jpl.nasa.gov 6775
                  e-mail/batch   https://ssd.jpl.nasa.gov/ftp/ssd/hrzn_batch.txt
                  scripts        https://ssd.jpl.nasa.gov/ftp/ssd/SCRIPTS
    Author      : Jon.D.Giorgini@jpl.nasa.gov
*******************************************************************************
